OBJECT_NAME,OBJECT_ID,EPOCH,MEAN_MOTION,ECCENTRICITY,INCLINATION,RA_OF_ASC_NODE,ARG_OF_PERICENTER,MEAN_ANOMALY,EPHEMERIS_TYPE,CLASSIFICATION_TYPE,NORAD_CAT_ID,ELEMENT_SET_NO,REV_AT_EPOCH,BSTAR,MEAN_MOTION_DOT,MEAN_MOTION_DDOT
GEOSCAN 3 (RS92S3),2025-155T,2026-07-08T22:55:27.094080,15.36157317,.00086097,97.4544,160.0977,103.4096,256.8108,0,U,64893,999,8419,.36790061E-3,.129E-3,0
INNOSAT 3 (RS92S0),2025-155U,2026-07-08T22:48:17.427744,15.45473122,.00082973,97.4489,161.9927,104.7502,255.4667,0,U,64894,999,8432,.63825131E-3,.30604E-3,0
KNACKSAT-2,1998-067XZ,2026-07-08T06:51:35.208288,15.61884949,.00082087,51.6260,188.2015,303.7179,56.3032,0,U,67683,999,2357,.40782476E-3,.35828E-3,0
