GEOSCAN 3 (RS92S3)      
1 64893U 25155T   26189.95517470  .00012900  00000+0  36790-3 0  9991
2 64893  97.4544 160.0977 0008609 103.4096 256.8108 15.36157317 84192
INNOSAT 3 (RS92S0)      
1 64894U 25155U   26189.95020171  .00030604  00000+0  63825-3 0  9999
2 64894  97.4489 161.9927 0008297 104.7502 255.4667 15.45473122 84320
KNACKSAT-2              
1 67683U 98067XZ  26189.28582417  .00035828  00000+0  40782-3 0  9992
2 67683  51.6260 188.2015 0008208 303.7179  56.3032 15.61884949 23576
